STARLINK-36405          
1 67921U 26036T   26070.91667824 -.01892855  00000+0 -17773-1 0  9995
2 67921  42.9994 236.1568 0001775 278.0010  56.8502 15.69225087  4008
STARLINK-36383          
1 67922U 26036U   26070.78176279  .00483620  00000+0  21564-2 0  9997
2 67922  42.9983 236.7953 0002428 307.3990  52.6660 15.82184775  4002
STARLINK-36406          
1 67923U 26036V   26070.91667824 -.01890805  00000+0 -21319-1 0  9991
2 67923  42.9993 236.2781 0001700 273.9491  11.8283 15.64764265  4000
STARLINK-36714          
1 67924U 26036W   26069.77012861  .00406904  00000+0  18330-2 0  9999
2 67924  42.9987 242.9721 0002745 304.5474  55.5138 15.82161611  3845
STARLINK-36726          
1 67925U 26036X   26069.83327216  .00673958  00000+0  29005-2 0  9996
2 67925  42.9982 242.5843 0002757 319.3112  40.7554 15.82458935  3855
STARLINK-36758          
1 67926U 26036Y   26070.91667824 -.01859286  00000+0 -13293-1 0  9994
2 67926  42.9991 235.9653 0001742 286.6727 124.2724 15.75993322  4003
STARLINK-36728          
1 67927U 26036Z   26070.91667824 -.01869531  00000+0 -11448-1 0  9999
2 67927  42.9995 235.9124 0001469 285.9532 146.2106 15.79428903  4003
STARLINK-36771          
1 67928U 26036AA  26070.90403918  .00620167  00000+0  26187-2 0  9995
2 67928  42.9983 235.9872 0015643 305.0311  54.9092 15.82871260  4022
STARLINK-36809          
1 67929U 26036AB  26069.95578864  .00178779  00000+0  83285-3 0  9992
2 67929  42.9986 241.7797 0002240 285.1196  74.9428 15.82048131  3875
STARLINK-36865          
1 67930U 26036AC  26070.90128627  .00307168  00000+0  14033-2 0  9999
2 67930  42.9989 235.9643 0001704 284.8142  75.2541 15.82119378  4026
STARLINK-36781          
1 67931U 26036AD  26070.90204021  .00174753  00000+0  81424-3 0  9994
2 67931  42.9990 235.9718 0001984 261.7679  98.2968 15.82056264  4023
STARLINK-36301          
1 67932U 26037A   26070.91667824  .00049705  00000+0  23745-3 0  9991
2 67932  42.9981 184.9303 0001702 275.6500  94.6965 15.81995640  3465
