CCSDS_OMM_VERS = 2.0
CREATION_DATE  = 
ORIGINATOR     = 

OBJECT_NAME    = STARLINK-36405
OBJECT_ID      = 2026-036T
CENTER_NAME    = EARTH
REF_FRAME      = TEME
TIME_SYSTEM    = UTC
MEAN_ELEMENT_THEORY = SGP/SGP4

EPOCH          = 2026-03-11T22:00:00.999936
MEAN_MOTION    = 15.69225087
ECCENTRICITY   = .00017756
INCLINATION    = 42.9994
RA_OF_ASC_NODE = 236.1568
ARG_OF_PERICENTER = 278.0010
MEAN_ANOMALY   = 56.8502

EPHEMERIS_TYPE = 0
CLASSIFICATION_TYPE = U
NORAD_CAT_ID   = 67921
ELEMENT_SET_NO = 999
REV_AT_EPOCH   = 400
BSTAR          = -.1777306E-1
MEAN_MOTION_DOT = -.1892855E-1
MEAN_MOTION_DDOT = 0

CCSDS_OMM_VERS = 2.0
CREATION_DATE  = 
ORIGINATOR     = 

OBJECT_NAME    = STARLINK-36383
OBJECT_ID      = 2026-036U
CENTER_NAME    = EARTH
REF_FRAME      = TEME
TIME_SYSTEM    = UTC
MEAN_ELEMENT_THEORY = SGP/SGP4

EPOCH          = 2026-03-11T18:45:44.305056
MEAN_MOTION    = 15.82184775
ECCENTRICITY   = .00024288
INCLINATION    = 42.9983
RA_OF_ASC_NODE = 236.7953
ARG_OF_PERICENTER = 307.3990
MEAN_ANOMALY   = 52.6660

EPHEMERIS_TYPE = 0
CLASSIFICATION_TYPE = U
NORAD_CAT_ID   = 67922
ELEMENT_SET_NO = 999
REV_AT_EPOCH   = 400
BSTAR          = .21563912E-2
MEAN_MOTION_DOT = .48362E-2
MEAN_MOTION_DDOT = 0

CCSDS_OMM_VERS = 2.0
CREATION_DATE  = 
ORIGINATOR     = 

OBJECT_NAME    = STARLINK-36406
OBJECT_ID      = 2026-036V
CENTER_NAME    = EARTH
REF_FRAME      = TEME
TIME_SYSTEM    = UTC
MEAN_ELEMENT_THEORY = SGP/SGP4

EPOCH          = 2026-03-11T22:00:00.999936
MEAN_MOTION    = 15.64764265
ECCENTRICITY   = .00017006
INCLINATION    = 42.9993
RA_OF_ASC_NODE = 236.2781
ARG_OF_PERICENTER = 273.9491
MEAN_ANOMALY   = 11.8283

EPHEMERIS_TYPE = 0
CLASSIFICATION_TYPE = U
NORAD_CAT_ID   = 67923
ELEMENT_SET_NO = 999
REV_AT_EPOCH   = 400
BSTAR          = -.21318755E-1
MEAN_MOTION_DOT = -.1890805E-1
MEAN_MOTION_DDOT = 0

CCSDS_OMM_VERS = 2.0
CREATION_DATE  = 
ORIGINATOR     = 

OBJECT_NAME    = STARLINK-36714
OBJECT_ID      = 2026-036W
CENTER_NAME    = EARTH
REF_FRAME      = TEME
TIME_SYSTEM    = UTC
MEAN_ELEMENT_THEORY = SGP/SGP4

EPOCH          = 2026-03-10T18:28:59.111904
MEAN_MOTION    = 15.82161611
ECCENTRICITY   = .00027459
INCLINATION    = 42.9987
RA_OF_ASC_NODE = 242.9721
ARG_OF_PERICENTER = 304.5474
MEAN_ANOMALY   = 55.5138

EPHEMERIS_TYPE = 0
CLASSIFICATION_TYPE = U
NORAD_CAT_ID   = 67924
ELEMENT_SET_NO = 999
REV_AT_EPOCH   = 384
BSTAR          = .18330222E-2
MEAN_MOTION_DOT = .406904E-2
MEAN_MOTION_DDOT = 0

CCSDS_OMM_VERS = 2.0
CREATION_DATE  = 
ORIGINATOR     = 

OBJECT_NAME    = STARLINK-36726
OBJECT_ID      = 2026-036X
CENTER_NAME    = EARTH
REF_FRAME      = TEME
TIME_SYSTEM    = UTC
MEAN_ELEMENT_THEORY = SGP/SGP4

EPOCH          = 2026-03-10T19:59:54.714624
MEAN_MOTION    = 15.82458935
ECCENTRICITY   = .00027571
INCLINATION    = 42.9982
RA_OF_ASC_NODE = 242.5843
ARG_OF_PERICENTER = 319.3112
MEAN_ANOMALY   = 40.7554

EPHEMERIS_TYPE = 0
CLASSIFICATION_TYPE = U
NORAD_CAT_ID   = 67925
ELEMENT_SET_NO = 999
REV_AT_EPOCH   = 385
BSTAR          = .29005436E-2
MEAN_MOTION_DOT = .673958E-2
MEAN_MOTION_DDOT = 0

CCSDS_OMM_VERS = 2.0
CREATION_DATE  = 
ORIGINATOR     = 

OBJECT_NAME    = STARLINK-36758
OBJECT_ID      = 2026-036Y
CENTER_NAME    = EARTH
REF_FRAME      = TEME
TIME_SYSTEM    = UTC
MEAN_ELEMENT_THEORY = SGP/SGP4

EPOCH          = 2026-03-11T22:00:00.999936
MEAN_MOTION    = 15.75993322
ECCENTRICITY   = .00017422
INCLINATION    = 42.9991
RA_OF_ASC_NODE = 235.9653
ARG_OF_PERICENTER = 286.6727
MEAN_ANOMALY   = 124.2724

EPHEMERIS_TYPE = 0
CLASSIFICATION_TYPE = U
NORAD_CAT_ID   = 67926
ELEMENT_SET_NO = 999
REV_AT_EPOCH   = 400
BSTAR          = -.13293383E-1
MEAN_MOTION_DOT = -.1859286E-1
MEAN_MOTION_DDOT = 0

CCSDS_OMM_VERS = 2.0
CREATION_DATE  = 
ORIGINATOR     = 

OBJECT_NAME    = STARLINK-36728
OBJECT_ID      = 2026-036Z
CENTER_NAME    = EARTH
REF_FRAME      = TEME
TIME_SYSTEM    = UTC
MEAN_ELEMENT_THEORY = SGP/SGP4

EPOCH          = 2026-03-11T22:00:00.999936
MEAN_MOTION    = 15.79428903
ECCENTRICITY   = .00014692
INCLINATION    = 42.9995
RA_OF_ASC_NODE = 235.9124
ARG_OF_PERICENTER = 285.9532
MEAN_ANOMALY   = 146.2106

EPHEMERIS_TYPE = 0
CLASSIFICATION_TYPE = U
NORAD_CAT_ID   = 67927
ELEMENT_SET_NO = 999
REV_AT_EPOCH   = 400
BSTAR          = -.11447799E-1
MEAN_MOTION_DOT = -.1869531E-1
MEAN_MOTION_DDOT = 0

CCSDS_OMM_VERS = 2.0
CREATION_DATE  = 
ORIGINATOR     = 

OBJECT_NAME    = STARLINK-36771
OBJECT_ID      = 2026-036AA
CENTER_NAME    = EARTH
REF_FRAME      = TEME
TIME_SYSTEM    = UTC
MEAN_ELEMENT_THEORY = SGP/SGP4

EPOCH          = 2026-03-11T21:41:48.985152
MEAN_MOTION    = 15.82871260
ECCENTRICITY   = .00156431
INCLINATION    = 42.9983
RA_OF_ASC_NODE = 235.9872
ARG_OF_PERICENTER = 305.0311
MEAN_ANOMALY   = 54.9092

EPHEMERIS_TYPE = 0
CLASSIFICATION_TYPE = U
NORAD_CAT_ID   = 67928
ELEMENT_SET_NO = 999
REV_AT_EPOCH   = 402
BSTAR          = .26187281E-2
MEAN_MOTION_DOT = .620167E-2
MEAN_MOTION_DDOT = 0

CCSDS_OMM_VERS = 2.0
CREATION_DATE  = 
ORIGINATOR     = 

OBJECT_NAME    = STARLINK-36809
OBJECT_ID      = 2026-036AB
CENTER_NAME    = EARTH
REF_FRAME      = TEME
TIME_SYSTEM    = UTC
MEAN_ELEMENT_THEORY = SGP/SGP4

EPOCH          = 2026-03-10T22:56:20.138496
MEAN_MOTION    = 15.82048131
ECCENTRICITY   = .00022409
INCLINATION    = 42.9986
RA_OF_ASC_NODE = 241.7797
ARG_OF_PERICENTER = 285.1196
MEAN_ANOMALY   = 74.9428

EPHEMERIS_TYPE = 0
CLASSIFICATION_TYPE = U
NORAD_CAT_ID   = 67929
ELEMENT_SET_NO = 999
REV_AT_EPOCH   = 387
BSTAR          = .83285356E-3
MEAN_MOTION_DOT = .178779E-2
MEAN_MOTION_DDOT = 0

CCSDS_OMM_VERS = 2.0
CREATION_DATE  = 
ORIGINATOR     = 

OBJECT_NAME    = STARLINK-36865
OBJECT_ID      = 2026-036AC
CENTER_NAME    = EARTH
REF_FRAME      = TEME
TIME_SYSTEM    = UTC
MEAN_ELEMENT_THEORY = SGP/SGP4

EPOCH          = 2026-03-11T21:37:51.133728
MEAN_MOTION    = 15.82119378
ECCENTRICITY   = .00017048
INCLINATION    = 42.9989
RA_OF_ASC_NODE = 235.9643
ARG_OF_PERICENTER = 284.8142
MEAN_ANOMALY   = 75.2541

EPHEMERIS_TYPE = 0
CLASSIFICATION_TYPE = U
NORAD_CAT_ID   = 67930
ELEMENT_SET_NO = 999
REV_AT_EPOCH   = 402
BSTAR          = .14033441E-2
MEAN_MOTION_DOT = .307168E-2
MEAN_MOTION_DDOT = 0

CCSDS_OMM_VERS = 2.0
CREATION_DATE  = 
ORIGINATOR     = 

OBJECT_NAME    = STARLINK-36781
OBJECT_ID      = 2026-036AD
CENTER_NAME    = EARTH
REF_FRAME      = TEME
TIME_SYSTEM    = UTC
MEAN_ELEMENT_THEORY = SGP/SGP4

EPOCH          = 2026-03-11T21:38:56.274144
MEAN_MOTION    = 15.82056264
ECCENTRICITY   = .00019843
INCLINATION    = 42.9990
RA_OF_ASC_NODE = 235.9718
ARG_OF_PERICENTER = 261.7679
MEAN_ANOMALY   = 98.2968

EPHEMERIS_TYPE = 0
CLASSIFICATION_TYPE = U
NORAD_CAT_ID   = 67931
ELEMENT_SET_NO = 999
REV_AT_EPOCH   = 402
BSTAR          = .81424378E-3
MEAN_MOTION_DOT = .174753E-2
MEAN_MOTION_DDOT = 0

CCSDS_OMM_VERS = 2.0
CREATION_DATE  = 
ORIGINATOR     = 

OBJECT_NAME    = STARLINK-36301
OBJECT_ID      = 2026-037A
CENTER_NAME    = EARTH
REF_FRAME      = TEME
TIME_SYSTEM    = UTC
MEAN_ELEMENT_THEORY = SGP/SGP4

EPOCH          = 2026-03-11T22:00:00.999936
MEAN_MOTION    = 15.81995640
ECCENTRICITY   = .0001702
INCLINATION    = 42.9981
RA_OF_ASC_NODE = 184.9303
ARG_OF_PERICENTER = 275.6500
MEAN_ANOMALY   = 94.6965

EPHEMERIS_TYPE = 0
CLASSIFICATION_TYPE = U
NORAD_CAT_ID   = 67932
ELEMENT_SET_NO = 999
REV_AT_EPOCH   = 346
BSTAR          = .23744873E-3
MEAN_MOTION_DOT = .49705E-3
MEAN_MOTION_DDOT = 0

